{
"type": "FeatureCollection",
"name": "ZBS_4258_ES70_all_original",
"crs": { "type": "name", "properties": { "name": "urn:ogc:def:crs:EPSG::4258" } },
"features": [
{ "type": "Feature", "properties": { "codatzbs": "70114", "n_zbs": "INGENIO", "ccaa_cd": "ES70", "area": "Gran Canaria" }, "geometry": { "type": "MultiPolygon", "coordinates": [ [ [ [ -15.383654209973828, 27.870851062426595 ], [ -15.433471553069751, 27.888762024148093 ], [ -15.46974084156659, 27.933979765753577 ], [ -15.507494169720189, 27.936693913393356 ], [ -15.542640733782832, 27.952111396823511 ], [ -15.531456948279526, 27.957614189243429 ], [ -15.408215023304706, 27.940758829256534 ], [ -15.382354782247432, 27.929332532570299 ], [ -15.393965249296798, 27.890732943270677 ], [ -15.383654209973828, 27.870851062426595 ] ] ] ] } },
{ "type": "Feature", "properties": { "codatzbs": "70115", "n_zbs": "JINAMAR", "ccaa_cd": "ES70", "area": "Gran Canaria" }, "geometry": { "type": "MultiPolygon", "coordinates": [ [ [ [ -15.390499756758343, 28.028785734673875 ], [ -15.399253196377911, 28.019206445820771 ], [ -15.460164602314537, 28.024166573828325 ], [ -15.45615809022371, 28.024951549774187 ], [ -15.415852422251476, 28.047137344412871 ], [ -15.390499756758343, 28.028785734673875 ] ] ] ] } },
{ "type": "Feature", "properties": { "codatzbs": "70116", "n_zbs": "LAS REMUDAS", "ccaa_cd": "ES70", "area": "Gran Canaria" }, "geometry": { "type": "MultiPolygon", "coordinates": [ [ [ [ -15.386010101884722, 28.018838695949057 ], [ -15.393073341261696, 28.006070518139893 ], [ -15.41691636160084, 28.006219477346978 ], [ -15.399253196377911, 28.019206445820771 ], [ -15.390499756758343, 28.028785734673875 ], [ -15.386010101884722, 28.018838695949057 ] ] ] ] } },
{ "type": "Feature", "properties": { "codatzbs": "70117", "n_zbs": "MASPALOMAS", "ccaa_cd": "ES70", "area": "Gran Canaria" }, "geometry": { "type": "MultiPolygon", "coordinates": [ [ [ [ -15.52320785116143, 27.779033498397212 ], [ -15.561802315224668, 27.762029196290371 ], [ -15.574008917677418, 27.736086326422821 ], [ -15.599035560043092, 27.73482698867457 ], [ -15.659580251227624, 27.756693731730309 ], [ -15.671600275832075, 27.792049288343947 ], [ -15.631102018043691, 27.8545554251927 ], [ -15.627291138175508, 27.87496789884943 ], [ -15.58780335144354, 27.866921073648601 ], [ -15.586137289004682, 27.821709290051672 ], [ -15.565006754358251, 27.80658797585437 ], [ -15.538877847134929, 27.815404687276494 ], [ -15.52320785116143, 27.779033498397212 ] ] ] ] } },
{ "type": "Feature", "properties": { "codatzbs": "70110", "n_zbs": "TELDE CALERO", "ccaa_cd": "ES70", "area": "Gran Canaria" }, "geometry": { "type": "MultiPolygon", "coordinates": [ [ [ [ -15.382354782247432, 27.929332532570299 ], [ -15.408215023304706, 27.940758829256534 ], [ -15.393073341261696, 28.006070518139893 ], [ -15.386010101884722, 28.018838695949057 ], [ -15.378346163044966, 27.98303538037851 ], [ -15.382354782247432, 27.929332532570299 ] ] ] ] } },
{ "type": "Feature", "properties": { "codatzbs": "70111", "n_zbs": "ESCALERITAS-SCHAMANN", "ccaa_cd": "ES70", "area": "Gran Canaria" }, "geometry": { "type": "MultiPolygon", "coordinates": [ [ [ [ -15.43501497586044, 28.12950093561966 ], [ -15.43407411143113, 28.124463928167756 ], [ -15.429487531224597, 28.118507983556583 ], [ -15.429302748423083, 28.117800899691758 ], [ -15.439994745960746, 28.106663513810076 ], [ -15.440426874700506, 28.105813407163001 ], [ -15.440328016724608, 28.119171773158769 ], [ -15.440762427943696, 28.126895470149805 ], [ -15.435112806810594, 28.130108124590265 ], [ -15.43501497586044, 28.12950093561966 ] ] ] ] } },
{ "type": "Feature", "properties": { "codatzbs": "70112", "n_zbs": "FIRGAS", "ccaa_cd": "ES70", "area": "Gran Canaria" }, "geometry": { "type": "MultiPolygon", "coordinates": [ [ [ [ -15.549330884912422, 28.085472911645525 ], [ -15.556179826637674, 28.078280166296626 ], [ -15.576858621028521, 28.077377861199295 ], [ -15.562991844897738, 28.134994015361485 ], [ -15.541151010410829, 28.13010973887333 ], [ -15.549330884912422, 28.085472911645525 ] ] ] ] } },
{ "type": "Feature", "properties": { "codatzbs": "70113", "n_zbs": "GUANARTEME", "ccaa_cd": "ES70", "area": "Gran Canaria" }, "geometry": { "type": "MultiPolygon", "coordinates": [ [ [ [ -15.434349884939252, 28.142200434002799 ], [ -15.428004532083492, 28.140744042203774 ], [ -15.428695625103046, 28.136365322301742 ], [ -15.435112806810594, 28.130108124590265 ], [ -15.440762427943696, 28.126895470149805 ], [ -15.458474162852326, 28.094860174557368 ], [ -15.492425919120876, 28.123818290481719 ], [ -15.484806485031244, 28.134876938919604 ], [ -15.434349884939252, 28.142200434002799 ] ] ] ] } },
{ "type": "Feature", "properties": { "codatzbs": "70118", "n_zbs": "MILLER BAJO", "ccaa_cd": "ES70", "area": "Gran Canaria" }, "geometry": { "type": "MultiPolygon", "coordinates": [ [ [ [ -15.447284190912685, 28.084017697059039 ], [ -15.453468023730297, 28.078527389927103 ], [ -15.456600435261862, 28.092084696751328 ], [ -15.441736429692469, 28.103502838385278 ], [ -15.440426874700506, 28.105813407163001 ], [ -15.439994745960746, 28.106663513810076 ], [ -15.426140491090791, 28.108094693115561 ], [ -15.429302748423083, 28.117800899691758 ], [ -15.429487531224597, 28.118507983556583 ], [ -15.426865046984346, 28.112777241776257 ], [ -15.41896767831571, 28.100014387953649 ], [ -15.421884796646054, 28.098889419710929 ], [ -15.447284190912685, 28.084017697059039 ] ] ] ] } },
{ "type": "Feature", "properties": { "codatzbs": "70119", "n_zbs": "MOGAN", "ccaa_cd": "ES70", "area": "Gran Canaria" }, "geometry": { "type": "MultiPolygon", "coordinates": [ [ [ [ -15.79927430266696, 27.859072444637604 ], [ -15.779071675917123, 27.871636256008401 ], [ -15.734219889136568, 27.939356914789755 ], [ -15.690991815719713, 27.949812729673734 ], [ -15.68658913607976, 27.92106115384917 ], [ -15.663131488727233, 27.912006829851293 ], [ -15.669990805031659, 27.896987392654012 ], [ -15.627291138175508, 27.87496789884943 ], [ -15.631102018043691, 27.8545554251927 ], [ -15.671600275832075, 27.792049288343947 ], [ -15.659580251227624, 27.756693731730309 ], [ -15.766955691851706, 27.817144757624419 ], [ -15.79927430266696, 27.859072444637604 ] ] ] ] } },
{ "type": "Feature", "properties": { "codatzbs": "70509", "n_zbs": "TIJARAFE", "ccaa_cd": "ES70", "area": "La Palma" }, "geometry": { "type": "MultiPolygon", "coordinates": [ [ [ [ -17.924231405255171, 28.674738421740756 ], [ -17.938608245374212, 28.662716695618997 ], [ -17.949624133746795, 28.652404012335296 ], [ -18.006750507230151, 28.775022401362719 ], [ -17.967411935112693, 28.824854293690692 ], [ -17.914520596848092, 28.813098035745725 ], [ -17.885627983044969, 28.753827272910311 ], [ -17.924136611315589, 28.692787245035333 ], [ -17.924231405255171, 28.674738421740756 ] ] ] ] } },
{ "type": "Feature", "properties": { "codatzbs": "70508", "n_zbs": "TAZACORTE", "ccaa_cd": "ES70", "area": null }, "geometry": { "type": "MultiPolygon", "coordinates": [ [ [ [ -17.949624133746795, 28.652404012335296 ], [ -17.938608245374212, 28.662716695618997 ], [ -17.915974598249136, 28.633092816979911 ], [ -17.918403176965057, 28.592039608241297 ], [ -17.949624133746795, 28.652404012335296 ] ] ] ] } },
{ "type": "Feature", "properties": { "codatzbs": "70507", "n_zbs": "SANTA CRUZ DE LA PALMA", "ccaa_cd": "ES70", "area": "La Palma" }, "geometry": { "type": "MultiPolygon", "coordinates": [ [ [ [ -17.768566614657573, 28.676290826060779 ], [ -17.83344673687742, 28.688534494071632 ], [ -17.845494035221577, 28.70418441357981 ], [ -17.838328908952008, 28.743616339822211 ], [ -17.811605257576559, 28.745735790973981 ], [ -17.753458783096391, 28.782526821155841 ], [ -17.724569316021132, 28.743198456343691 ], [ -17.73257399359494, 28.720182661200852 ], [ -17.768566614657573, 28.676290826060779 ] ] ] ] } },
{ "type": "Feature", "properties": { "codatzbs": "70506", "n_zbs": "SAN ANDRES Y SAUCES", "ccaa_cd": "ES70", "area": "La Palma" }, "geometry": { "type": "MultiPolygon", "coordinates": [ [ [ [ -17.838328908952008, 28.743616339822211 ], [ -17.864563741923178, 28.760843589260219 ], [ -17.84838011255215, 28.834903757102666 ], [ -17.782192591914566, 28.840568462564477 ], [ -17.753458783096391, 28.782526821155841 ], [ -17.811605257576559, 28.745735790973981 ], [ -17.838328908952008, 28.743616339822211 ] ] ] ] } },
{ "type": "Feature", "properties": { "codatzbs": "70505", "n_zbs": "MAZO", "ccaa_cd": "ES70", "area": "La Palma" }, "geometry": { "type": "MultiPolygon", "coordinates": [ [ [ [ -17.887637999294213, 28.551606700588763 ], [ -17.882716947728966, 28.552792471994959 ], [ -17.838564729178927, 28.555671069664129 ], [ -17.840576738325808, 28.596557115118745 ], [ -17.778539445938691, 28.632588745174417 ], [ -17.753792210342226, 28.630363201900252 ], [ -17.760377165973409, 28.569722192425218 ], [ -17.78682312378811, 28.543587234563233 ], [ -17.832618839887573, 28.457811566950227 ], [ -17.856625448705472, 28.459949984803927 ], [ -17.87573011115569, 28.493984905878676 ], [ -17.887637999294213, 28.551606700588763 ] ] ] ] } },
{ "type": "Feature", "properties": { "codatzbs": "70504", "n_zbs": "LOS LLANOS DE ARIDANE", "ccaa_cd": "ES70", "area": "La Palma" }, "geometry": { "type": "MultiPolygon", "coordinates": [ [ [ [ -17.882716947728966, 28.552792471994959 ], [ -17.887637999294213, 28.551606700588763 ], [ -17.918403176965057, 28.592039608241297 ], [ -17.915974598249136, 28.633092816979911 ], [ -17.938608245374212, 28.662716695618997 ], [ -17.924231405255171, 28.674738421740756 ], [ -17.878704743828848, 28.630174550215315 ], [ -17.903248377410705, 28.597323706224017 ], [ -17.882716947728966, 28.552792471994959 ] ] ] ] } },
{ "type": "Feature", "properties": { "codatzbs": "70503", "n_zbs": "LAS BRENAS", "ccaa_cd": "ES70", "area": "La Palma" }, "geometry": { "type": "MultiPolygon", "coordinates": [ [ [ [ -17.83344673687742, 28.688534494071632 ], [ -17.768566614657573, 28.676290826060779 ], [ -17.753792210342226, 28.630363201900252 ], [ -17.778539445938691, 28.632588745174417 ], [ -17.840576738325808, 28.596557115118745 ], [ -17.826787929819091, 28.630715155180269 ], [ -17.83344673687742, 28.688534494071632 ] ] ] ] } },
{ "type": "Feature", "properties": { "codatzbs": "70502", "n_zbs": "GARAFIA", "ccaa_cd": "ES70", "area": "La Palma" }, "geometry": { "type": "MultiPolygon", "coordinates": [ [ [ [ -17.84838011255215, 28.834903757102666 ], [ -17.864563741923178, 28.760843589260219 ], [ -17.885627983044969, 28.753827272910311 ], [ -17.914520596848092, 28.813098035745725 ], [ -17.967411935112693, 28.824854293690692 ], [ -17.919741942836424, 28.857405916150071 ], [ -17.895969967140275, 28.842125019054379 ], [ -17.84838011255215, 28.834903757102666 ] ] ] ] } },
{ "type": "Feature", "properties": { "codatzbs": "70501", "n_zbs": "EL PASO", "ccaa_cd": "ES70", "area": "La Palma" }, "geometry": { "type": "MultiPolygon", "coordinates": [ [ [ [ -17.864563741923178, 28.760843589260219 ], [ -17.838328908952008, 28.743616339822211 ], [ -17.845494035221577, 28.70418441357981 ], [ -17.83344673687742, 28.688534494071632 ], [ -17.826787929819091, 28.630715155180269 ], [ -17.840576738325808, 28.596557115118745 ], [ -17.838564729178927, 28.555671069664129 ], [ -17.882716947728966, 28.552792471994959 ], [ -17.903248377410705, 28.597323706224017 ], [ -17.878704743828848, 28.630174550215315 ], [ -17.924231405255171, 28.674738421740756 ], [ -17.924136611315589, 28.692787245035333 ], [ -17.885627983044969, 28.753827272910311 ], [ -17.864563741923178, 28.760843589260219 ] ] ] ] } },
{ "type": "Feature", "properties": { "codatzbs": "70201", "n_zbs": "LA OLIVA", "ccaa_cd": "ES70", "area": "Fuerteventura" }, "geometry": { "type": "MultiPolygon", "coordinates": [ [ [ [ -13.828843359933105, 28.563822282772097 ], [ -13.909869366078397, 28.575240124931781 ], [ -14.003664728144711, 28.565777937701625 ], [ -14.043493454159602, 28.57795379503159 ], [ -14.038770615871217, 28.611347540856286 ], [ -14.008660492687568, 28.677228248784616 ], [ -14.018048380628272, 28.694064098879039 ], [ -13.999492193110257, 28.722241522328375 ], [ -13.924196292924591, 28.751661908670144 ], [ -13.889426560987031, 28.757134320192677 ], [ -13.844666505954478, 28.727517029087608 ], [ -13.822502315729309, 28.593034824997176 ], [ -13.828843359933105, 28.563822282772097 ] ] ] ] } },
{ "type": "Feature", "properties": { "codatzbs": "70202", "n_zbs": "PENINSULA DE JANDIA", "ccaa_cd": "ES70", "area": "Fuerteventura" }, "geometry": { "type": "MultiPolygon", "coordinates": [ [ [ [ -14.305256981724312, 28.151714273794653 ], [ -14.248666939627585, 28.131590781988962 ], [ -14.321526869569368, 28.050358381434137 ], [ -14.336097245591418, 28.044374778173449 ], [ -14.409536250797316, 28.058706422863111 ], [ -14.492614596186684, 28.083467903720759 ], [ -14.468544286589577, 28.10415460495102 ], [ -14.429436228698989, 28.101937108810489 ], [ -14.368818266150072, 28.118226770948695 ], [ -14.305256981724312, 28.151714273794653 ] ] ] ] } },
{ "type": "Feature", "properties": { "codatzbs": "70203", "n_zbs": "PUERTO DEL ROSARIO-ROSARIO SUR II", "ccaa_cd": "ES70", "area": "Fuerteventura" }, "geometry": { "type": "MultiPolygon", "coordinates": [ [ [ [ -14.089700799852039, 28.494323437676485 ], [ -14.066661510820095, 28.550953978043651 ], [ -14.043493454159602, 28.57795379503159 ], [ -14.003664728144711, 28.565777937701625 ], [ -13.909869366078397, 28.575240124931781 ], [ -13.828843359933105, 28.563822282772097 ], [ -13.843716141087045, 28.503266306894545 ], [ -13.862573062796628, 28.494081609078989 ], [ -13.861438940354844, 28.431237399986003 ], [ -13.848845097922949, 28.409424582078771 ], [ -13.898345877859979, 28.311871411836194 ], [ -13.897393437357266, 28.286284086241551 ], [ -13.916293200071152, 28.256046679310771 ], [ -13.93246716442809, 28.359878902589287 ], [ -13.903684043983446, 28.43592409542066 ], [ -13.956604344914579, 28.453298125907793 ], [ -13.990577377344096, 28.494880892339268 ], [ -14.022034311734105, 28.505260599397104 ], [ -14.089700799852039, 28.494323437676485 ] ] ] ] } },
{ "type": "Feature", "properties": { "codatzbs": "70204", "n_zbs": "TUINEJE-PAJARA", "ccaa_cd": "ES70", "area": "Fuerteventura" }, "geometry": { "type": "MultiPolygon", "coordinates": [ [ [ [ -14.248666939627585, 28.131590781988962 ], [ -14.305256981724312, 28.151714273794653 ], [ -14.247718576650982, 28.192776310278475 ], [ -14.214991312099356, 28.226218686043524 ], [ -14.213595713571353, 28.2879450738061 ], [ -14.198926218769998, 28.333973418438521 ], [ -14.163598068096348, 28.366987248362818 ], [ -14.15485567125222, 28.405288123348218 ], [ -14.062711191068615, 28.375607588319554 ], [ -14.067268581979476, 28.343903542714315 ], [ -14.012896214089039, 28.327724607804385 ], [ -13.9798174908845, 28.332737203159351 ], [ -13.919523847247774, 28.251505340399149 ], [ -13.945847993689938, 28.228594944001429 ], [ -13.98824694074375, 28.227644785078724 ], [ -14.008814733613065, 28.209582659012483 ], [ -14.136472703052789, 28.187538762104168 ], [ -14.222973058759637, 28.16221616724232 ], [ -14.248666939627585, 28.131590781988962 ] ] ] ] } },
{ "type": "Feature", "properties": { "codatzbs": "70205", "n_zbs": "ANTIGUA-BETANCURIA", "ccaa_cd": "ES70", "area": "Fuerteventura" }, "geometry": { "type": "MultiPolygon", "coordinates": [ [ [ [ -13.916293200071152, 28.256046679310771 ], [ -13.919523847247774, 28.251505340399149 ], [ -13.9798174908845, 28.332737203159351 ], [ -14.012896214089039, 28.327724607804385 ], [ -14.067268581979476, 28.343903542714315 ], [ -14.062711191068615, 28.375607588319554 ], [ -14.15485567125222, 28.405288123348218 ], [ -14.138928147216234, 28.446819312761079 ], [ -14.089700799852039, 28.494323437676485 ], [ -14.022034311734105, 28.505260599397104 ], [ -13.990577377344096, 28.494880892339268 ], [ -13.956604344914579, 28.453298125907793 ], [ -13.903684043983446, 28.43592409542066 ], [ -13.93246716442809, 28.359878902589287 ], [ -13.916293200071152, 28.256046679310771 ] ] ] ] } },
{ "type": "Feature", "properties": { "codatzbs": "70301", "n_zbs": "ARRECIFE-ARRECIFE II", "ccaa_cd": "ES70", "area": "Lanzarote" }, "geometry": { "type": "MultiPolygon", "coordinates": [ [ [ [ -13.515677754324884, 28.98136521683125 ], [ -13.544852040289411, 28.959253867172208 ], [ -13.604978114148651, 28.942238707550302 ], [ -13.619065959826171, 28.959016247401905 ], [ -13.585016708054638, 28.964280480259958 ], [ -13.585208623379287, 29.003376597851684 ], [ -13.55166554243084, 29.002159696412832 ], [ -13.515677754324884, 28.98136521683125 ] ] ] ] } },
{ "type": "Feature", "properties": { "codatzbs": "70303", "n_zbs": "SAN BARTOLOME LANZAROTE", "ccaa_cd": "ES70", "area": "Lanzarote" }, "geometry": { "type": "MultiPolygon", "coordinates": [ [ [ [ -13.585208623379287, 29.003376597851684 ], [ -13.585016708054638, 28.964280480259958 ], [ -13.619065959826171, 28.959016247401905 ], [ -13.660440370426784, 29.00574714421532 ], [ -13.694565670669192, 28.986781328995107 ], [ -13.744931710829803, 28.99804785302598 ], [ -13.806682824552697, 29.037324812589983 ], [ -13.756633702783176, 29.077342341375925 ], [ -13.681786722579204, 29.09655193312517 ], [ -13.64489180001658, 29.124527900342287 ], [ -13.604181458707387, 29.135487629650356 ], [ -13.557032147815391, 29.115631178036441 ], [ -13.530084256783027, 29.135406024268605 ], [ -13.512181852110814, 29.113783157566672 ], [ -13.543729579356636, 29.074393571406176 ], [ -13.593754553429903, 29.068019111992385 ], [ -13.585208623379287, 29.003376597851684 ] ] ] ] } },
{ "type": "Feature", "properties": { "codatzbs": "70302", "n_zbs": "MALA", "ccaa_cd": "ES70", "area": "Lanzarote" }, "geometry": { "type": "MultiPolygon", "coordinates": [ [ [ [ -13.512181852110814, 29.113783157566672 ], [ -13.530084256783027, 29.135406024268605 ], [ -13.496822392039746, 29.218545999298385 ], [ -13.46882547421626, 29.233729360421648 ], [ -13.420230753146768, 29.20124444877229 ], [ -13.429695840690499, 29.153657545759131 ], [ -13.463633412851721, 29.129340964913581 ], [ -13.44741785485013, 29.091598212787289 ], [ -13.467234757877804, 29.030496232415203 ], [ -13.495041619275298, 29.025608834380193 ], [ -13.50209884398646, 29.073335072955217 ], [ -13.490301973557225, 29.096840540858238 ], [ -13.512181852110814, 29.113783157566672 ] ] ] ] } },
{ "type": "Feature", "properties": { "codatzbs": "70305", "n_zbs": "TIAS", "ccaa_cd": "ES70", "area": "Lanzarote" }, "geometry": { "type": "MultiPolygon", "coordinates": [ [ [ [ -13.604978114148651, 28.942238707550302 ], [ -13.643876996925885, 28.919284889186255 ], [ -13.723414477596066, 28.909740040770259 ], [ -13.704971962586001, 28.939768082830767 ], [ -13.694565670669192, 28.986781328995107 ], [ -13.660440370426784, 29.00574714421532 ], [ -13.619065959826171, 28.959016247401905 ], [ -13.604978114148651, 28.942238707550302 ] ] ] ] } },
{ "type": "Feature", "properties": { "codatzbs": "70304", "n_zbs": "TEGUISE", "ccaa_cd": "ES70", "area": "Lanzarote" }, "geometry": { "type": "MultiPolygon", "coordinates": [ [ [ [ -13.585208623379287, 29.003376597851684 ], [ -13.593754553429903, 29.068019111992385 ], [ -13.543729579356636, 29.074393571406176 ], [ -13.512181852110814, 29.113783157566672 ], [ -13.490301973557225, 29.096840540858238 ], [ -13.50209884398646, 29.073335072955217 ], [ -13.495041619275298, 29.025608834380193 ], [ -13.467234757877804, 29.030496232415203 ], [ -13.475982929268753, 29.005807838560884 ], [ -13.515677754324884, 28.98136521683125 ], [ -13.55166554243084, 29.002159696412832 ], [ -13.585208623379287, 29.003376597851684 ] ] ] ] } },
{ "type": "Feature", "properties": { "codatzbs": "70307", "n_zbs": "LA GRACIOSA", "ccaa_cd": "ES70", "area": "Lanzarote" }, "geometry": { "type": "MultiPolygon", "coordinates": [ [ [ [ -13.545668753310338, 29.220331287558849 ], [ -13.526255241186448, 29.242182705267624 ], [ -13.515558009594486, 29.285036729061801 ], [ -13.475460746016608, 29.261357581387244 ], [ -13.504736387374408, 29.225034974784251 ], [ -13.545668753310338, 29.220331287558849 ] ] ] ] } },
{ "type": "Feature", "properties": { "codatzbs": "70306", "n_zbs": "PLAYA BLANCA/YAIZA", "ccaa_cd": "ES70", "area": "Lanzarote" }, "geometry": { "type": "MultiPolygon", "coordinates": [ [ [ [ -13.806682824552697, 29.037324812589983 ], [ -13.744931710829803, 28.99804785302598 ], [ -13.694565670669192, 28.986781328995107 ], [ -13.704971962586001, 28.939768082830767 ], [ -13.723414477596066, 28.909740040770259 ], [ -13.748401917614387, 28.877688057357943 ], [ -13.788954809217104, 28.844261925147691 ], [ -13.802479580368356, 28.858856723159249 ], [ -13.876978977997451, 28.859511372951488 ], [ -13.860136662676837, 28.895861080624343 ], [ -13.829808879276356, 28.929005109897901 ], [ -13.829866657120531, 29.007171182903733 ], [ -13.806682824552697, 29.037324812589983 ] ] ] ] } },
{ "type": "Feature", "properties": { "codatzbs": "70604", "n_zbs": "VALLE GRAN REY", "ccaa_cd": "ES70", "area": "La Gomera" }, "geometry": { "type": "MultiPolygon", "coordinates": [ [ [ [ -17.314573140038362, 28.057479155838337 ], [ -17.348287244160986, 28.097591600871681 ], [ -17.345216998265869, 28.123423640088902 ], [ -17.325713110571598, 28.14504583679593 ], [ -17.293571706668956, 28.150411808158424 ], [ -17.273171221874406, 28.126874470080736 ], [ -17.319503076905505, 28.10173339617927 ], [ -17.30398563023266, 28.089019698400364 ], [ -17.314573140038362, 28.057479155838337 ] ] ] ] } },
{ "type": "Feature", "properties": { "codatzbs": "70605", "n_zbs": "VALLEHERMOSO", "ccaa_cd": "ES70", "area": "La Gomera" }, "geometry": { "type": "MultiPolygon", "coordinates": [ [ [ [ -17.244965253043972, 28.11172926899053 ], [ -17.264887829110023, 28.078381033357971 ], [ -17.301609132155704, 28.04909756879772 ], [ -17.314573140038362, 28.057479155838337 ], [ -17.30398563023266, 28.089019698400364 ], [ -17.319503076905505, 28.10173339617927 ], [ -17.273171221874406, 28.126874470080736 ], [ -17.293571706668956, 28.150411808158424 ], [ -17.325713110571598, 28.14504583679593 ], [ -17.345216998265869, 28.123423640088902 ], [ -17.345574721596108, 28.152237868083148 ], [ -17.328596053764898, 28.187901963205036 ], [ -17.26233832125655, 28.217028071588231 ], [ -17.235240132825879, 28.202682444239372 ], [ -17.256724705380861, 28.129260020733341 ], [ -17.244965253043972, 28.11172926899053 ] ] ] ] } },
{ "type": "Feature", "properties": { "codatzbs": "70601", "n_zbs": "ALAJERO", "ccaa_cd": "ES70", "area": "La Gomera" }, "geometry": { "type": "MultiPolygon", "coordinates": [ [ [ [ -17.301609132155704, 28.04909756879772 ], [ -17.264887829110023, 28.078381033357971 ], [ -17.244965253043972, 28.11172926899053 ], [ -17.219435772742713, 28.10881763832333 ], [ -17.164606683251861, 28.075590492806953 ], [ -17.161096380193783, 28.045080013032138 ], [ -17.198032269573559, 28.024247041567719 ], [ -17.270990838056719, 28.025606957694947 ], [ -17.301609132155704, 28.04909756879772 ] ] ] ] } },
{ "type": "Feature", "properties": { "codatzbs": "70602", "n_zbs": "HERMIGUA-MULAGUA", "ccaa_cd": "ES70", "area": "La Gomera" }, "geometry": { "type": "MultiPolygon", "coordinates": [ [ [ [ -17.138440329157845, 28.160373347551911 ], [ -17.167669614061424, 28.14789216409207 ], [ -17.219435772742713, 28.10881763832333 ], [ -17.244965253043972, 28.11172926899053 ], [ -17.256724705380861, 28.129260020733341 ], [ -17.235240132825879, 28.202682444239372 ], [ -17.200269695590009, 28.200391289126685 ], [ -17.176678909903785, 28.177454466150664 ], [ -17.138440329157845, 28.160373347551911 ] ] ] ] } },
{ "type": "Feature", "properties": { "codatzbs": "70603", "n_zbs": "SAN SEBASTIAN DE LA GOMERA", "ccaa_cd": "ES70", "area": "La Gomera" }, "geometry": { "type": "MultiPolygon", "coordinates": [ [ [ [ -17.161096380193783, 28.045080013032138 ], [ -17.164606683251861, 28.075590492806953 ], [ -17.219435772742713, 28.10881763832333 ], [ -17.167669614061424, 28.14789216409207 ], [ -17.138440329157845, 28.160373347551911 ], [ -17.111287641811202, 28.14266839802815 ], [ -17.1038869911917, 28.103294432192289 ], [ -17.122065173868691, 28.073093885774199 ], [ -17.161096380193783, 28.045080013032138 ] ] ] ] } },
{ "type": "Feature", "properties": { "codatzbs": "70415", "n_zbs": "ICOD", "ccaa_cd": "ES70", "area": "Tenerife" }, "geometry": { "type": "MultiPolygon", "coordinates": [ [ [ [ -16.754684605110469, 28.371928102999561 ], [ -16.684280941312409, 28.391352978057455 ], [ -16.633311163779183, 28.315107123095231 ], [ -16.641012032379422, 28.298851238593784 ], [ -16.675116748938819, 28.271371715132545 ], [ -16.700439580322382, 28.271600296716315 ], [ -16.786286924801743, 28.311157675686161 ], [ -16.818565595825589, 28.314370396676452 ], [ -16.810573347781769, 28.36132339006241 ], [ -16.754684605110469, 28.371928102999561 ] ] ] ] } },
{ "type": "Feature", "properties": { "codatzbs": "70414", "n_zbs": "GUIMAR", "ccaa_cd": "ES70", "area": "Tenerife" }, "geometry": { "type": "MultiPolygon", "coordinates": [ [ [ [ -16.490227259080768, 28.32486699761381 ], [ -16.463551303250028, 28.37172390833166 ], [ -16.445145337587292, 28.390293410312609 ], [ -16.410464608854625, 28.3539758012422 ], [ -16.361375839823154, 28.370311863901406 ], [ -16.369760516934321, 28.353925984196792 ], [ -16.361650595298727, 28.304477776827923 ], [ -16.425066251606211, 28.201969674860607 ], [ -16.423097523232116, 28.193567140810899 ], [ -16.537728229174434, 28.287098184933257 ], [ -16.490227259080768, 28.32486699761381 ] ] ] ] } },
{ "type": "Feature", "properties": { "codatzbs": "70417", "n_zbs": "TACO", "ccaa_cd": "ES70", "area": "Tenerife" }, "geometry": { "type": "MultiPolygon", "coordinates": [ [ [ [ -16.298344650884928, 28.464176418007241 ], [ -16.291058144018109, 28.453697612854512 ], [ -16.292006443142839, 28.448166724714554 ], [ -16.294601817320029, 28.431716629818595 ], [ -16.299222255202892, 28.435551517088811 ], [ -16.320366008084818, 28.451071237247788 ], [ -16.306421976592958, 28.469205378325512 ], [ -16.307086033293785, 28.469869434127077 ], [ -16.308306753254044, 28.471057216417364 ], [ -16.298344650884928, 28.464176418007241 ] ] ] ] } },
{ "type": "Feature", "properties": { "codatzbs": "70416", "n_zbs": "LA CUESTA", "ccaa_cd": "ES70", "area": "Tenerife" }, "geometry": { "type": "MultiPolygon", "coordinates": [ [ [ [ -16.286381595634111, 28.460647264259819 ], [ -16.291058144018109, 28.453697612854512 ], [ -16.298344650884928, 28.464176418007241 ], [ -16.304546096924867, 28.481140871154253 ], [ -16.275772827653896, 28.504125439137681 ], [ -16.271533441515146, 28.500139978377263 ], [ -16.277957969784495, 28.475238896657743 ], [ -16.281118658699143, 28.466992793382701 ], [ -16.286381595634111, 28.460647264259819 ] ] ] ] } },
{ "type": "Feature", "properties": { "codatzbs": "70411", "n_zbs": "PUERTO II BOTANICO-LA VERA-SANTARITA II", "ccaa_cd": "ES70", "area": "Tenerife" }, "geometry": { "type": "MultiPolygon", "coordinates": [ [ [ [ -16.523314802835898, 28.417288450101864 ], [ -16.558132055849683, 28.390435594926771 ], [ -16.570481539891148, 28.408158602837204 ], [ -16.523314802835898, 28.417288450101864 ] ] ] ] } },
{ "type": "Feature", "properties": { "codatzbs": "70410", "n_zbs": "CANDELARIA", "ccaa_cd": "ES70", "area": "Tenerife" }, "geometry": { "type": "MultiPolygon", "coordinates": [ [ [ [ -16.351840287699133, 28.400874196786731 ], [ -16.337386215601384, 28.396687251015805 ], [ -16.361719414119648, 28.373316392737308 ], [ -16.361375839823154, 28.370311863901406 ], [ -16.410464608854625, 28.3539758012422 ], [ -16.445145337587292, 28.390293410312609 ], [ -16.442833872185474, 28.390351734045279 ], [ -16.418726098630543, 28.40901191107082 ], [ -16.408398884101246, 28.414033373741177 ], [ -16.406682430849514, 28.413850272671937 ], [ -16.351840287699133, 28.400874196786731 ] ] ] ] } },
{ "type": "Feature", "properties": { "codatzbs": "70413", "n_zbs": "GUIA DE ISORA", "ccaa_cd": "ES70", "area": "Tenerife" }, "geometry": { "type": "MultiPolygon", "coordinates": [ [ [ [ -16.801871949231099, 28.156322363086588 ], [ -16.840183420028836, 28.226145003688941 ], [ -16.777291758208094, 28.273967799774141 ], [ -16.700906990365297, 28.267998123414657 ], [ -16.675116748938819, 28.271371715132545 ], [ -16.68081611876886, 28.212780260600539 ], [ -16.720627512149974, 28.178607052573401 ], [ -16.801871949231099, 28.156322363086588 ] ] ] ] } },
{ "type": "Feature", "properties": { "codatzbs": "70412", "n_zbs": "GRANADILLA", "ccaa_cd": "ES70", "area": "Tenerife" }, "geometry": { "type": "MultiPolygon", "coordinates": [ [ [ [ -16.481799519732078, 28.095266508942188 ], [ -16.492280639739761, 28.080254097248769 ], [ -16.558398322624498, 28.031418460393638 ], [ -16.624650610637161, 28.01880698675302 ], [ -16.622326302916576, 28.053892550700652 ], [ -16.641408083915962, 28.072738429634796 ], [ -16.641072849032753, 28.130019666374498 ], [ -16.613103443269324, 28.153727833372784 ], [ -16.618601605080016, 28.213643409215933 ], [ -16.599704084376015, 28.218213555211378 ], [ -16.481799519732078, 28.095266508942188 ] ] ] ] } },
{ "type": "Feature", "properties": { "codatzbs": "70701", "n_zbs": "FRONTERA VALLE DEL GOLFO", "ccaa_cd": "ES70", "area": "El Hierro" }, "geometry": { "type": "MultiPolygon", "coordinates": [ [ [ [ -18.133461439293967, 27.704427735251784 ], [ -18.160814858918627, 27.716406091567876 ], [ -18.15436063233733, 27.75528691415974 ], [ -18.132250402334193, 27.771317751413051 ], [ -18.105163489603346, 27.756516418697743 ], [ -18.039636574967972, 27.762235738188735 ], [ -17.99764044055388, 27.790882623034634 ], [ -17.992025438822964, 27.821994538816909 ], [ -17.979102577621859, 27.759607904780975 ], [ -18.005634798407243, 27.731982862918755 ], [ -18.094408690608589, 27.718582278249528 ], [ -18.133461439293967, 27.704427735251784 ] ] ] ] } },
{ "type": "Feature", "properties": { "codatzbs": "70419", "n_zbs": "LA LAGUNA (UNIVERSIDAD)-FINCA ESPANA", "ccaa_cd": "ES70", "area": "Tenerife" }, "geometry": { "type": "MultiPolygon", "coordinates": [ [ [ [ -16.298344650884928, 28.464176418007241 ], [ -16.308306753254044, 28.471057216417364 ], [ -16.313378958372255, 28.480688663251215 ], [ -16.304546096924867, 28.481140871154253 ], [ -16.298344650884928, 28.464176418007241 ] ] ] ] } },
{ "type": "Feature", "properties": { "codatzbs": "70418", "n_zbs": "ROSARIO-GENETO", "ccaa_cd": "ES70", "area": "Tenerife" }, "geometry": { "type": "MultiPolygon", "coordinates": [ [ [ [ -16.313378958372255, 28.480688663251215 ], [ -16.308306753254044, 28.471057216417364 ], [ -16.307086033293785, 28.469869434127077 ], [ -16.306421976592958, 28.469205378325512 ], [ -16.320366008084818, 28.451071237247788 ], [ -16.338188997224449, 28.424140133860082 ], [ -16.351840287699133, 28.400874196786731 ], [ -16.406682430849514, 28.413850272671937 ], [ -16.383809772702875, 28.446573423724487 ], [ -16.375259024084698, 28.491872086327703 ], [ -16.400813653027683, 28.511244760237503 ], [ -16.355032665125407, 28.490617634596163 ], [ -16.329585653555057, 28.507997105082325 ], [ -16.313378958372255, 28.480688663251215 ] ] ], [ [ [ -16.448196071791301, 28.460140549346875 ], [ -16.457314037213052, 28.454833991695352 ], [ -16.457501443336923, 28.444058138672119 ], [ -16.441223552425015, 28.454163082160505 ], [ -16.408398884101246, 28.414033373741177 ], [ -16.418726098630543, 28.40901191107082 ], [ -16.426281248280986, 28.42678258664705 ], [ -16.474472578446751, 28.442947466052715 ], [ -16.455082779646546, 28.465894910921406 ], [ -16.448196071791301, 28.460140549346875 ] ] ] ] } },
{ "type": "Feature", "properties": { "codatzbs": "70702", "n_zbs": "VALVERDE", "ccaa_cd": "ES70", "area": "El Hierro" }, "geometry": { "type": "MultiPolygon", "coordinates": [ [ [ [ -18.133461439293967, 27.704427735251784 ], [ -18.094408690608589, 27.718582278249528 ], [ -18.005634798407243, 27.731982862918755 ], [ -17.979102577621859, 27.759607904780975 ], [ -17.992025438822964, 27.821994538816909 ], [ -17.957817802949251, 27.841659879100121 ], [ -17.916949183657891, 27.847643022807233 ], [ -17.883854278052468, 27.80222824873465 ], [ -17.903055506106739, 27.785675919807829 ], [ -17.931663194001203, 27.728539892102333 ], [ -17.957466314618728, 27.719513051386173 ], [ -17.972602598031472, 27.670828313575782 ], [ -17.994694668923842, 27.640279516386556 ], [ -18.050100714876123, 27.692543857213195 ], [ -18.133461439293967, 27.704427735251784 ] ] ] ] } },
{ "type": "Feature", "properties": { "codatzbs": "70406", "n_zbs": "ANAZA", "ccaa_cd": "ES70", "area": "Tenerife" }, "geometry": { "type": "MultiPolygon", "coordinates": [ [ [ [ -16.299222255202892, 28.435551517088811 ], [ -16.294601817320029, 28.431716629818595 ], [ -16.290211383748385, 28.427386723318591 ], [ -16.291553720827551, 28.426789524017295 ], [ -16.30749007440744, 28.409730482875489 ], [ -16.299222255202892, 28.435551517088811 ] ] ] ] } },
{ "type": "Feature", "properties": { "codatzbs": "70407", "n_zbs": "BARRANCO GRANDE", "ccaa_cd": "ES70", "area": "Tenerife" }, "geometry": { "type": "MultiPolygon", "coordinates": [ [ [ [ -16.320366008084818, 28.451071237247788 ], [ -16.299222255202892, 28.435551517088811 ], [ -16.30749007440744, 28.409730482875489 ], [ -16.328707140921836, 28.402233445617014 ], [ -16.338188997224449, 28.424140133860082 ], [ -16.320366008084818, 28.451071237247788 ] ] ] ] } },
{ "type": "Feature", "properties": { "codatzbs": "70404", "n_zbs": "ARONA COSTA I", "ccaa_cd": "ES70", "area": "Tenerife" }, "geometry": { "type": "MultiPolygon", "coordinates": [ [ [ [ -16.695697646729002, 28.060355162560711 ], [ -16.709844501422594, 28.036404055402841 ], [ -16.733224988742222, 28.06655832540639 ], [ -16.72022161483568, 28.068228548109005 ], [ -16.695697646729002, 28.060355162560711 ] ] ] ] } },
{ "type": "Feature", "properties": { "codatzbs": "70405", "n_zbs": "ARONA VILAFLOR", "ccaa_cd": "ES70", "area": "Tenerife" }, "geometry": { "type": "MultiPolygon", "coordinates": [ [ [ [ -16.618601605080016, 28.213643409215933 ], [ -16.613103443269324, 28.153727833372784 ], [ -16.641072849032753, 28.130019666374498 ], [ -16.641408083915962, 28.072738429634796 ], [ -16.637951004535239, 28.052173778097369 ], [ -16.695697646729002, 28.060355162560711 ], [ -16.72022161483568, 28.068228548109005 ], [ -16.697179990264317, 28.086764473901329 ], [ -16.710468433971073, 28.146022117426753 ], [ -16.664527161699141, 28.206144383556421 ], [ -16.618601605080016, 28.213643409215933 ] ] ] ] } },
{ "type": "Feature", "properties": { "codatzbs": "70402", "n_zbs": "ANAGA", "ccaa_cd": "ES70", "area": "Tenerife" }, "geometry": { "type": "MultiPolygon", "coordinates": [ [ [ [ -16.239060094247975, 28.48221560416675 ], [ -16.251771227160418, 28.485026983808211 ], [ -16.271533441515146, 28.500139978377263 ], [ -16.275772827653896, 28.504125439137681 ], [ -16.214765357035617, 28.537450370638055 ], [ -16.230627316897142, 28.566416146088272 ], [ -16.159214647038311, 28.588397541013705 ], [ -16.134110350911953, 28.581055365212933 ], [ -16.119428512915533, 28.555596471799731 ], [ -16.158672575279127, 28.521784555612729 ], [ -16.239060094247975, 28.48221560416675 ] ] ] ] } },
{ "type": "Feature", "properties": { "codatzbs": "70403", "n_zbs": "ARICO", "ccaa_cd": "ES70", "area": "Tenerife" }, "geometry": { "type": "MultiPolygon", "coordinates": [ [ [ [ -16.423097523232116, 28.193567140810899 ], [ -16.431446324588194, 28.142528840333679 ], [ -16.481799519732078, 28.095266508942188 ], [ -16.599704084376015, 28.218213555211378 ], [ -16.552305593828123, 28.250756150276121 ], [ -16.537728229174434, 28.287098184933257 ], [ -16.423097523232116, 28.193567140810899 ] ] ] ] } },
{ "type": "Feature", "properties": { "codatzbs": "70401", "n_zbs": "ADEJE", "ccaa_cd": "ES70", "area": "Tenerife" }, "geometry": { "type": "MultiPolygon", "coordinates": [ [ [ [ -16.72022161483568, 28.068228548109005 ], [ -16.733224988742222, 28.06655832540639 ], [ -16.738817786211882, 28.087903594775071 ], [ -16.772376977615409, 28.112671202713841 ], [ -16.801871949231099, 28.156322363086588 ], [ -16.720627512149974, 28.178607052573401 ], [ -16.68081611876886, 28.212780260600539 ], [ -16.664527161699141, 28.206144383556421 ], [ -16.710468433971073, 28.146022117426753 ], [ -16.697179990264317, 28.086764473901329 ], [ -16.72022161483568, 28.068228548109005 ] ] ] ] } },
{ "type": "Feature", "properties": { "codatzbs": "70408", "n_zbs": "BARRIO DE LA SALUD", "ccaa_cd": "ES70", "area": "Tenerife" }, "geometry": { "type": "MultiPolygon", "coordinates": [ [ [ [ -16.26715111083513, 28.467297693233945 ], [ -16.272552605418412, 28.464134534780953 ], [ -16.281118658699143, 28.466992793382701 ], [ -16.277957969784495, 28.475238896657743 ], [ -16.26715111083513, 28.467297693233945 ] ] ] ] } },
{ "type": "Feature", "properties": { "codatzbs": "70409", "n_zbs": "DUGGI CENTRO", "ccaa_cd": "ES70", "area": "Tenerife" }, "geometry": { "type": "MultiPolygon", "coordinates": [ [ [ [ -16.244939518244166, 28.46686809968304 ], [ -16.268890272867793, 28.447648080294641 ], [ -16.264332244337595, 28.457185057844129 ], [ -16.263831996449483, 28.457696261273441 ], [ -16.260791858957134, 28.464383273769045 ], [ -16.251747520131971, 28.484820205388132 ], [ -16.244939518244166, 28.46686809968304 ] ] ] ] } },
{ "type": "Feature", "properties": { "codatzbs": "70433", "n_zbs": "TACORONTE", "ccaa_cd": "ES70", "area": "Tenerife" }, "geometry": { "type": "MultiPolygon", "coordinates": [ [ [ [ -16.406682430849514, 28.413850272671937 ], [ -16.408398884101246, 28.414033373741177 ], [ -16.441223552425015, 28.454163082160505 ], [ -16.448196071791301, 28.460140549346875 ], [ -16.455082779646546, 28.465894910921406 ], [ -16.429893274554956, 28.487732121140478 ], [ -16.41097929895551, 28.526591165749664 ], [ -16.400813653027683, 28.511244760237503 ], [ -16.375259024084698, 28.491872086327703 ], [ -16.383809772702875, 28.446573423724487 ], [ -16.406682430849514, 28.413850272671937 ] ] ] ] } },
{ "type": "Feature", "properties": { "codatzbs": "70432", "n_zbs": "SANTIAGO DEL TEIDE", "ccaa_cd": "ES70", "area": "Tenerife" }, "geometry": { "type": "MultiPolygon", "coordinates": [ [ [ [ -16.840183420028836, 28.226145003688941 ], [ -16.852808543579442, 28.273108645047898 ], [ -16.820781607185438, 28.294349629032126 ], [ -16.818565595825589, 28.314370396676452 ], [ -16.786286924801743, 28.311157675686161 ], [ -16.700439580322382, 28.271600296716315 ], [ -16.675116748938819, 28.271371715132545 ], [ -16.700906990365297, 28.267998123414657 ], [ -16.777291758208094, 28.273967799774141 ], [ -16.840183420028836, 28.226145003688941 ] ] ] ] } },
{ "type": "Feature", "properties": { "codatzbs": "70431", "n_zbs": "SANTA URSULA", "ccaa_cd": "ES70", "area": "Tenerife" }, "geometry": { "type": "MultiPolygon", "coordinates": [ [ [ [ -16.487567906233892, 28.43747113978128 ], [ -16.442833872185474, 28.390351734045279 ], [ -16.445145337587292, 28.390293410312609 ], [ -16.463551303250028, 28.37172390833166 ], [ -16.475346065668418, 28.386299620031423 ], [ -16.503330803973427, 28.42473283475249 ], [ -16.487567906233892, 28.43747113978128 ] ] ] ] } },
{ "type": "Feature", "properties": { "codatzbs": "70430", "n_zbs": "SAN ANTONIO", "ccaa_cd": "ES70", "area": "Tenerife" }, "geometry": { "type": "MultiPolygon", "coordinates": [ [ [ [ -16.463551303250028, 28.37172390833166 ], [ -16.490227259080768, 28.32486699761381 ], [ -16.534535013580012, 28.349788262818041 ], [ -16.558233261056159, 28.323189917580635 ], [ -16.560754007691287, 28.386065059754685 ], [ -16.511221543739282, 28.377368799030819 ], [ -16.475346065668418, 28.386299620031423 ], [ -16.463551303250028, 28.37172390833166 ] ] ] ] } },
{ "type": "Feature", "properties": { "codatzbs": "70437", "n_zbs": "LA MATANZA", "ccaa_cd": "ES70", "area": "Tenerife" }, "geometry": { "type": "MultiPolygon", "coordinates": [ [ [ [ -16.441223552425015, 28.454163082160505 ], [ -16.457501443336923, 28.444058138672119 ], [ -16.457314037213052, 28.454833991695352 ], [ -16.448196071791301, 28.460140549346875 ], [ -16.441223552425015, 28.454163082160505 ] ] ] ] } },
{ "type": "Feature", "properties": { "codatzbs": "70436", "n_zbs": "ARONA COSTA II", "ccaa_cd": "ES70", "area": "Tenerife" }, "geometry": { "type": "MultiPolygon", "coordinates": [ [ [ [ -16.709844501422594, 28.036404055402841 ], [ -16.695697646729002, 28.060355162560711 ], [ -16.637951004535239, 28.052173778097369 ], [ -16.641408083915962, 28.072738429634796 ], [ -16.622326302916576, 28.053892550700652 ], [ -16.624650610637161, 28.01880698675302 ], [ -16.678275433264616, 27.998280674213731 ], [ -16.707566063622949, 28.011394331083466 ], [ -16.709844501422594, 28.036404055402841 ] ] ] ] } },
{ "type": "Feature", "properties": { "codatzbs": "70435", "n_zbs": "TOSCAL CENTRO", "ccaa_cd": "ES70", "area": "Tenerife" }, "geometry": { "type": "MultiPolygon", "coordinates": [ [ [ [ -16.239060094247975, 28.48221560416675 ], [ -16.244939518244166, 28.46686809968304 ], [ -16.251747520131971, 28.484820205388132 ], [ -16.251771227160418, 28.485026983808211 ], [ -16.239060094247975, 28.48221560416675 ] ] ] ] } },
{ "type": "Feature", "properties": { "codatzbs": "70434", "n_zbs": "TEJINA - TEGUESTE", "ccaa_cd": "ES70", "area": "Tenerife" }, "geometry": { "type": "MultiPolygon", "coordinates": [ [ [ [ -16.400813653027683, 28.511244760237503 ], [ -16.41097929895551, 28.526591165749664 ], [ -16.380434206073744, 28.54802616677415 ], [ -16.333356697953263, 28.558293499045703 ], [ -16.295963736237468, 28.529837951260447 ], [ -16.329585653555057, 28.507997105082325 ], [ -16.355032665125407, 28.490617634596163 ], [ -16.400813653027683, 28.511244760237503 ] ] ] ] } },
{ "type": "Feature", "properties": { "codatzbs": "70439", "n_zbs": "EL ROSARIO - SAN ISIDRO", "ccaa_cd": "ES70", "area": "Tenerife" }, "geometry": { "type": "MultiPolygon", "coordinates": [ [ [ [ -16.328707140921836, 28.402233445617014 ], [ -16.337386215601384, 28.396687251015805 ], [ -16.351840287699133, 28.400874196786731 ], [ -16.338188997224449, 28.424140133860082 ], [ -16.328707140921836, 28.402233445617014 ] ] ] ] } },
{ "type": "Feature", "properties": { "codatzbs": "70438", "n_zbs": "PARQUE MARITIMO", "ccaa_cd": "ES70", "area": "Tenerife" }, "geometry": { "type": "MultiPolygon", "coordinates": [ [ [ [ -16.263831996449483, 28.457696261273441 ], [ -16.262321047278533, 28.464866176432849 ], [ -16.260791858957134, 28.464383273769045 ], [ -16.263831996449483, 28.457696261273441 ] ] ] ] } },
{ "type": "Feature", "properties": { "codatzbs": "70129", "n_zbs": "SANTA MARIA DE GUIA", "ccaa_cd": "ES70", "area": "Gran Canaria" }, "geometry": { "type": "MultiPolygon", "coordinates": [ [ [ [ -15.60910282463567, 28.148063348244932 ], [ -15.591100257071218, 28.131019035300199 ], [ -15.587737934757911, 28.101519326056007 ], [ -15.622242177834266, 28.066979239600187 ], [ -15.618161425809149, 28.038522200738953 ], [ -15.636329926384974, 28.066476851325604 ], [ -15.631499102901271, 28.111942695199215 ], [ -15.649480272896255, 28.164974593902343 ], [ -15.60910282463567, 28.148063348244932 ] ] ] ] } },
{ "type": "Feature", "properties": { "codatzbs": "70128", "n_zbs": "SANTA BRIGIDA", "ccaa_cd": "ES70", "area": "Gran Canaria" }, "geometry": { "type": "MultiPolygon", "coordinates": [ [ [ [ -15.460164602314537, 28.024166573828325 ], [ -15.500728394599721, 28.014162461428441 ], [ -15.513276821268278, 28.007530905626769 ], [ -15.540819918704299, 28.035930452628293 ], [ -15.507378867640623, 28.048138499392223 ], [ -15.495520383758731, 28.05145622522457 ], [ -15.47728303288568, 28.056271431980974 ], [ -15.45615809022371, 28.024951549774187 ], [ -15.460164602314537, 28.024166573828325 ] ] ] ] } },
{ "type": "Feature", "properties": { "codatzbs": "70125", "n_zbs": "TELDE SAN JUAN", "ccaa_cd": "ES70", "area": "Gran Canaria" }, "geometry": { "type": "MultiPolygon", "coordinates": [ [ [ [ -15.460164602314537, 28.024166573828325 ], [ -15.399253196377911, 28.019206445820771 ], [ -15.41691636160084, 28.006219477346978 ], [ -15.4609141647569, 28.005570489686303 ], [ -15.500728394599721, 28.014162461428441 ], [ -15.460164602314537, 28.024166573828325 ] ] ] ] } },
{ "type": "Feature", "properties": { "codatzbs": "70124", "n_zbs": "TELDE SAN GREGORIO", "ccaa_cd": "ES70", "area": "Gran Canaria" }, "geometry": { "type": "MultiPolygon", "coordinates": [ [ [ [ -15.531456948279526, 27.957614189243429 ], [ -15.463208620381522, 27.98336705574502 ], [ -15.4609141647569, 28.005570489686303 ], [ -15.41691636160084, 28.006219477346978 ], [ -15.393073341261696, 28.006070518139893 ], [ -15.408215023304706, 27.940758829256534 ], [ -15.531456948279526, 27.957614189243429 ] ] ] ] } },
{ "type": "Feature", "properties": { "codatzbs": "70127", "n_zbs": "SAN ROQUE", "ccaa_cd": "ES70", "area": "Gran Canaria" }, "geometry": { "type": "MultiPolygon", "coordinates": [ [ [ [ -15.421884796646054, 28.098889419710929 ], [ -15.418028932689085, 28.095982700241393 ], [ -15.433115746194744, 28.07709514762297 ], [ -15.447284190912685, 28.084017697059039 ], [ -15.421884796646054, 28.098889419710929 ] ] ] ] } },
{ "type": "Feature", "properties": { "codatzbs": "70126", "n_zbs": "SAN MATEO", "ccaa_cd": "ES70", "area": "Gran Canaria" }, "geometry": { "type": "MultiPolygon", "coordinates": [ [ [ [ -15.600023715322209, 28.011544212095711 ], [ -15.569175625554692, 28.026138976832272 ], [ -15.540819918704299, 28.035930452628293 ], [ -15.513276821268278, 28.007530905626769 ], [ -15.549420056290558, 27.987048708431132 ], [ -15.554335696635119, 27.954186167857362 ], [ -15.57176620814397, 27.96207000082984 ], [ -15.600023715322209, 28.011544212095711 ] ] ] ] } },
{ "type": "Feature", "properties": { "codatzbs": "70121", "n_zbs": "SAN NICOLAS TOLENTINO", "ccaa_cd": "ES70", "area": "Gran Canaria" }, "geometry": { "type": "MultiPolygon", "coordinates": [ [ [ [ -15.734219889136568, 27.939356914789755 ], [ -15.779071675917123, 27.871636256008401 ], [ -15.79927430266696, 27.859072444637604 ], [ -15.83314330242149, 27.909892146005689 ], [ -15.834254135120259, 27.970342661984262 ], [ -15.817444284426188, 28.004729584003087 ], [ -15.771888879767973, 28.032472780594333 ], [ -15.751217979626064, 28.018277581045538 ], [ -15.748485093712134, 27.96852735435391 ], [ -15.734219889136568, 27.939356914789755 ] ] ] ] } },
{ "type": "Feature", "properties": { "codatzbs": "70120", "n_zbs": "MOYA", "ccaa_cd": "ES70", "area": "Gran Canaria" }, "geometry": { "type": "MultiPolygon", "coordinates": [ [ [ [ -15.591100257071218, 28.131019035300199 ], [ -15.588571902171566, 28.147223293320337 ], [ -15.587153724364896, 28.147274521402039 ], [ -15.562991844897738, 28.134994015361485 ], [ -15.576858621028521, 28.077377861199295 ], [ -15.613739787561144, 28.018718795635891 ], [ -15.615258730805806, 28.021316303904257 ], [ -15.618161425809149, 28.038522200738953 ], [ -15.622242177834266, 28.066979239600187 ], [ -15.587737934757911, 28.101519326056007 ], [ -15.591100257071218, 28.131019035300199 ] ] ] ] } },
{ "type": "Feature", "properties": { "codatzbs": "70123", "n_zbs": "LA ISLETA", "ccaa_cd": "ES70", "area": "Gran Canaria" }, "geometry": { "type": "MultiPolygon", "coordinates": [ [ [ [ -15.428004532083492, 28.140744042203774 ], [ -15.434349884939252, 28.142200434002799 ], [ -15.439662083138614, 28.161974611139385 ], [ -15.422460800725389, 28.180326336890911 ], [ -15.407326190950982, 28.153805913412157 ], [ -15.428004532083492, 28.140744042203774 ] ] ] ] } },
{ "type": "Feature", "properties": { "codatzbs": "70122", "n_zbs": "SAN JOSE (SAN CRISTOBAL)", "ccaa_cd": "ES70", "area": "Gran Canaria" }, "geometry": { "type": "MultiPolygon", "coordinates": [ [ [ [ -15.411734157705212, 28.095910580908537 ], [ -15.418028932689085, 28.095982700241393 ], [ -15.421884796646054, 28.098889419710929 ], [ -15.41896767831571, 28.100014387953649 ], [ -15.412192082598551, 28.104050749442536 ], [ -15.411734157705212, 28.095910580908537 ] ] ] ] } },
{ "type": "Feature", "properties": { "codatzbs": "70428", "n_zbs": "LA GUANCHA", "ccaa_cd": "ES70", "area": "Tenerife" }, "geometry": { "type": "MultiPolygon", "coordinates": [ [ [ [ -16.62380067216327, 28.395913860136545 ], [ -16.619614158066952, 28.357348788615695 ], [ -16.592115161585468, 28.314010122868865 ], [ -16.641012032379422, 28.298851238593784 ], [ -16.633311163779183, 28.315107123095231 ], [ -16.684280941312409, 28.391352978057455 ], [ -16.62380067216327, 28.395913860136545 ] ] ] ] } },
{ "type": "Feature", "properties": { "codatzbs": "70429", "n_zbs": "SALAMANCA", "ccaa_cd": "ES70", "area": "Tenerife" }, "geometry": { "type": "MultiPolygon", "coordinates": [ [ [ [ -16.260791858957134, 28.464383273769045 ], [ -16.262321047278533, 28.464866176432849 ], [ -16.26715111083513, 28.467297693233945 ], [ -16.277957969784495, 28.475238896657743 ], [ -16.271533441515146, 28.500139978377263 ], [ -16.251771227160418, 28.485026983808211 ], [ -16.251747520131971, 28.484820205388132 ], [ -16.260791858957134, 28.464383273769045 ] ] ] ] } },
{ "type": "Feature", "properties": { "codatzbs": "70424", "n_zbs": "LOS SILOS", "ccaa_cd": "ES70", "area": "Tenerife" }, "geometry": { "type": "MultiPolygon", "coordinates": [ [ [ [ -16.768003498062967, 28.37087485299207 ], [ -16.755870390006521, 28.373748337116069 ], [ -16.754684605110469, 28.371928102999561 ], [ -16.810573347781769, 28.36132339006241 ], [ -16.818565595825589, 28.314370396676452 ], [ -16.820781607185438, 28.294349629032126 ], [ -16.852808543579442, 28.273108645047898 ], [ -16.880013741441019, 28.302889074071516 ], [ -16.916580680354116, 28.361309921815405 ], [ -16.890287536240805, 28.36373233388008 ], [ -16.829029561265259, 28.393256254672391 ], [ -16.808600943878446, 28.376215896946064 ], [ -16.768003498062967, 28.37087485299207 ] ] ] ] } },
{ "type": "Feature", "properties": { "codatzbs": "70425", "n_zbs": "OFRA-DELICIAS", "ccaa_cd": "ES70", "area": "Tenerife" }, "geometry": { "type": "MultiPolygon", "coordinates": [ [ [ [ -16.286381595634111, 28.460647264259819 ], [ -16.292006443142839, 28.448166724714554 ], [ -16.291058144018109, 28.453697612854512 ], [ -16.286381595634111, 28.460647264259819 ] ] ] ] } },
{ "type": "Feature", "properties": { "codatzbs": "70426", "n_zbs": "OFRA-MIRAMAR", "ccaa_cd": "ES70", "area": "Tenerife" }, "geometry": { "type": "MultiPolygon", "coordinates": [ [ [ [ -16.272552605418412, 28.464134534780953 ], [ -16.264332244337595, 28.457185057844129 ], [ -16.268890272867793, 28.447648080294641 ], [ -16.290211383748385, 28.427386723318591 ], [ -16.294601817320029, 28.431716629818595 ], [ -16.292006443142839, 28.448166724714554 ], [ -16.286381595634111, 28.460647264259819 ], [ -16.281118658699143, 28.466992793382701 ], [ -16.272552605418412, 28.464134534780953 ] ] ] ] } },
{ "type": "Feature", "properties": { "codatzbs": "70427", "n_zbs": "OROTAVA II - DEHESA", "ccaa_cd": "ES70", "area": "Tenerife" }, "geometry": { "type": "MultiPolygon", "coordinates": [ [ [ [ -16.560754007691287, 28.386065059754685 ], [ -16.558132055849683, 28.390435594926771 ], [ -16.523314802835898, 28.417288450101864 ], [ -16.503330803973427, 28.42473283475249 ], [ -16.475346065668418, 28.386299620031423 ], [ -16.511221543739282, 28.377368799030819 ], [ -16.560754007691287, 28.386065059754685 ] ] ], [ [ [ -16.490227259080768, 28.32486699761381 ], [ -16.537728229174434, 28.287098184933257 ], [ -16.552305593828123, 28.250756150276121 ], [ -16.599704084376015, 28.218213555211378 ], [ -16.618601605080016, 28.213643409215933 ], [ -16.664527161699141, 28.206144383556421 ], [ -16.68081611876886, 28.212780260600539 ], [ -16.675116748938819, 28.271371715132545 ], [ -16.641012032379422, 28.298851238593784 ], [ -16.592115161585468, 28.314010122868865 ], [ -16.558233261056159, 28.323189917580635 ], [ -16.534535013580012, 28.349788262818041 ], [ -16.490227259080768, 28.32486699761381 ] ] ] ] } },
{ "type": "Feature", "properties": { "codatzbs": "70420", "n_zbs": "LAS MERCEDES", "ccaa_cd": "ES70", "area": "Tenerife" }, "geometry": { "type": "MultiPolygon", "coordinates": [ [ [ [ -16.230627316897142, 28.566416146088272 ], [ -16.214765357035617, 28.537450370638055 ], [ -16.275772827653896, 28.504125439137681 ], [ -16.304546096924867, 28.481140871154253 ], [ -16.313378958372255, 28.480688663251215 ], [ -16.329585653555057, 28.507997105082325 ], [ -16.295963736237468, 28.529837951260447 ], [ -16.333356697953263, 28.558293499045703 ], [ -16.333000596100646, 28.56083719458087 ], [ -16.303729444158535, 28.570972884091304 ], [ -16.230627316897142, 28.566416146088272 ] ] ] ] } },
{ "type": "Feature", "properties": { "codatzbs": "70421", "n_zbs": "LA VICTORIA", "ccaa_cd": "ES70", "area": "Tenerife" }, "geometry": { "type": "MultiPolygon", "coordinates": [ [ [ [ -16.418726098630543, 28.40901191107082 ], [ -16.442833872185474, 28.390351734045279 ], [ -16.487567906233892, 28.43747113978128 ], [ -16.474472578446751, 28.442947466052715 ], [ -16.426281248280986, 28.42678258664705 ], [ -16.418726098630543, 28.40901191107082 ] ] ] ] } },
{ "type": "Feature", "properties": { "codatzbs": "70422", "n_zbs": "LOS GLADIOLOS", "ccaa_cd": "ES70", "area": "Tenerife" }, "geometry": { "type": "MultiPolygon", "coordinates": [ [ [ [ -16.262321047278533, 28.464866176432849 ], [ -16.263831996449483, 28.457696261273441 ], [ -16.264332244337595, 28.457185057844129 ], [ -16.272552605418412, 28.464134534780953 ], [ -16.26715111083513, 28.467297693233945 ], [ -16.262321047278533, 28.464866176432849 ] ] ] ] } },
{ "type": "Feature", "properties": { "codatzbs": "70423", "n_zbs": "LOS REALEJOS", "ccaa_cd": "ES70", "area": "Tenerife" }, "geometry": { "type": "MultiPolygon", "coordinates": [ [ [ [ -16.558233261056159, 28.323189917580635 ], [ -16.592115161585468, 28.314010122868865 ], [ -16.619614158066952, 28.357348788615695 ], [ -16.62380067216327, 28.395913860136545 ], [ -16.570481539891148, 28.408158602837204 ], [ -16.558132055849683, 28.390435594926771 ], [ -16.560754007691287, 28.386065059754685 ], [ -16.558233261056159, 28.323189917580635 ] ] ] ] } },
{ "type": "Feature", "properties": { "codatzbs": "70138", "n_zbs": "VECINDARIO", "ccaa_cd": "ES70", "area": "Gran Canaria" }, "geometry": { "type": "MultiPolygon", "coordinates": [ [ [ [ -15.52320785116143, 27.779033498397212 ], [ -15.538877847134929, 27.815404687276494 ], [ -15.523589769851981, 27.839241004968361 ], [ -15.555633094591656, 27.864249100615496 ], [ -15.573376178967465, 27.905373325218761 ], [ -15.550282866760879, 27.951163629198103 ], [ -15.543037896881458, 27.949715394250006 ], [ -15.519897237167754, 27.931696207214145 ], [ -15.511901074375089, 27.882254786129465 ], [ -15.417977374556187, 27.857814033191062 ], [ -15.409160171204917, 27.848048055873051 ], [ -15.43870929999423, 27.800184362218545 ], [ -15.52320785116143, 27.779033498397212 ] ] ] ] } },
{ "type": "Feature", "properties": { "codatzbs": "70136", "n_zbs": "VALLESECO", "ccaa_cd": "ES70", "area": "Gran Canaria" }, "geometry": { "type": "MultiPolygon", "coordinates": [ [ [ [ -15.569175625554692, 28.026138976832272 ], [ -15.600023715322209, 28.011544212095711 ], [ -15.613739787561144, 28.018718795635891 ], [ -15.576858621028521, 28.077377861199295 ], [ -15.556179826637674, 28.078280166296626 ], [ -15.569175625554692, 28.026138976832272 ] ] ] ] } },
{ "type": "Feature", "properties": { "codatzbs": "70137", "n_zbs": "VALSEQUILLO DE GRAN CANARIA", "ccaa_cd": "ES70", "area": "Gran Canaria" }, "geometry": { "type": "MultiPolygon", "coordinates": [ [ [ [ -15.531456948279526, 27.957614189243429 ], [ -15.542640733782832, 27.952111396823511 ], [ -15.543037896881458, 27.949715394250006 ], [ -15.550282866760879, 27.951163629198103 ], [ -15.554335696635119, 27.954186167857362 ], [ -15.549420056290558, 27.987048708431132 ], [ -15.513276821268278, 28.007530905626769 ], [ -15.500728394599721, 28.014162461428441 ], [ -15.4609141647569, 28.005570489686303 ], [ -15.463208620381522, 27.98336705574502 ], [ -15.531456948279526, 27.957614189243429 ] ] ] ] } },
{ "type": "Feature", "properties": { "codatzbs": "70134", "n_zbs": "SAN BARTOLOME DE TIRAJANA", "ccaa_cd": "ES70", "area": "Gran Canaria" }, "geometry": { "type": "MultiPolygon", "coordinates": [ [ [ [ -15.538877847134929, 27.815404687276494 ], [ -15.565006754358251, 27.80658797585437 ], [ -15.586137289004682, 27.821709290051672 ], [ -15.58780335144354, 27.866921073648601 ], [ -15.627291138175508, 27.87496789884943 ], [ -15.669990805031659, 27.896987392654012 ], [ -15.663131488727233, 27.912006829851293 ], [ -15.630991976998132, 27.940629230654451 ], [ -15.57176620814397, 27.96207000082984 ], [ -15.554335696635119, 27.954186167857362 ], [ -15.550282866760879, 27.951163629198103 ], [ -15.573376178967465, 27.905373325218761 ], [ -15.555633094591656, 27.864249100615496 ], [ -15.523589769851981, 27.839241004968361 ], [ -15.538877847134929, 27.815404687276494 ] ] ] ] } },
{ "type": "Feature", "properties": { "codatzbs": "70135", "n_zbs": "TRIANA", "ccaa_cd": "ES70", "area": "Gran Canaria" }, "geometry": { "type": "MultiPolygon", "coordinates": [ [ [ [ -15.41475796890512, 28.10964453436776 ], [ -15.412192082598551, 28.104050749442536 ], [ -15.41896767831571, 28.100014387953649 ], [ -15.426865046984346, 28.112777241776257 ], [ -15.426686383170081, 28.112833435914297 ], [ -15.41475796890512, 28.10964453436776 ] ] ] ] } },
{ "type": "Feature", "properties": { "codatzbs": "70132", "n_zbs": "TEJEDA", "ccaa_cd": "ES70", "area": "Gran Canaria" }, "geometry": { "type": "MultiPolygon", "coordinates": [ [ [ [ -15.674680059936804, 28.052810192336494 ], [ -15.615258730805806, 28.021316303904257 ], [ -15.613739787561144, 28.018718795635891 ], [ -15.600023715322209, 28.011544212095711 ], [ -15.57176620814397, 27.96207000082984 ], [ -15.630991976998132, 27.940629230654451 ], [ -15.663131488727233, 27.912006829851293 ], [ -15.68658913607976, 27.92106115384917 ], [ -15.690991815719713, 27.949812729673734 ], [ -15.734219889136568, 27.939356914789755 ], [ -15.748485093712134, 27.96852735435391 ], [ -15.751217979626064, 28.018277581045538 ], [ -15.771888879767973, 28.032472780594333 ], [ -15.746045087310961, 28.051064083040956 ], [ -15.72419939198835, 28.030638196895268 ], [ -15.674680059936804, 28.052810192336494 ] ] ] ] } },
{ "type": "Feature", "properties": { "codatzbs": "70133", "n_zbs": "TEROR", "ccaa_cd": "ES70", "area": "Gran Canaria" }, "geometry": { "type": "MultiPolygon", "coordinates": [ [ [ [ -15.507378867640623, 28.048138499392223 ], [ -15.540819918704299, 28.035930452628293 ], [ -15.569175625554692, 28.026138976832272 ], [ -15.556179826637674, 28.078280166296626 ], [ -15.549330884912422, 28.085472911645525 ], [ -15.504498218617924, 28.100377072843628 ], [ -15.526948297026308, 28.053404285379429 ], [ -15.507378867640623, 28.048138499392223 ] ] ] ] } },
{ "type": "Feature", "properties": { "codatzbs": "70130", "n_zbs": "TAFIRA/LOMO BLANCO", "ccaa_cd": "ES70", "area": "Gran Canaria" }, "geometry": { "type": "MultiPolygon", "coordinates": [ [ [ [ -15.495520383758731, 28.05145622522457 ], [ -15.453468023730297, 28.078527389927103 ], [ -15.447284190912685, 28.084017697059039 ], [ -15.433115746194744, 28.07709514762297 ], [ -15.419766127904497, 28.06244995340262 ], [ -15.415852422251476, 28.047137344412871 ], [ -15.45615809022371, 28.024951549774187 ], [ -15.47728303288568, 28.056271431980974 ], [ -15.495520383758731, 28.05145622522457 ] ] ] ] } },
{ "type": "Feature", "properties": { "codatzbs": "70131", "n_zbs": "TAMARACEITE", "ccaa_cd": "ES70", "area": "Gran Canaria" }, "geometry": { "type": "MultiPolygon", "coordinates": [ [ [ [ -15.504498218617924, 28.100377072843628 ], [ -15.492425919120876, 28.123818290481719 ], [ -15.458474162852326, 28.094860174557368 ], [ -15.456600435261862, 28.092084696751328 ], [ -15.453468023730297, 28.078527389927103 ], [ -15.495520383758731, 28.05145622522457 ], [ -15.507378867640623, 28.048138499392223 ], [ -15.526948297026308, 28.053404285379429 ], [ -15.504498218617924, 28.100377072843628 ] ] ] ] } },
{ "type": "Feature", "properties": { "codatzbs": "70109", "n_zbs": "CUEVAS TORRES", "ccaa_cd": "ES70", "area": "Gran Canaria" }, "geometry": { "type": "MultiPolygon", "coordinates": [ [ [ [ -15.441736429692469, 28.103502838385278 ], [ -15.456600435261862, 28.092084696751328 ], [ -15.458474162852326, 28.094860174557368 ], [ -15.440762427943696, 28.126895470149805 ], [ -15.440328016724608, 28.119171773158769 ], [ -15.441736429692469, 28.103502838385278 ] ] ] ] } },
{ "type": "Feature", "properties": { "codatzbs": "70108", "n_zbs": "CONO SUR", "ccaa_cd": "ES70", "area": "Gran Canaria" }, "geometry": { "type": "MultiPolygon", "coordinates": [ [ [ [ -15.411734157705212, 28.095910580908537 ], [ -15.419766127904497, 28.06244995340262 ], [ -15.433115746194744, 28.07709514762297 ], [ -15.418028932689085, 28.095982700241393 ], [ -15.411734157705212, 28.095910580908537 ] ] ] ] } },
{ "type": "Feature", "properties": { "codatzbs": "70103", "n_zbs": "ALCARAVANERAS", "ccaa_cd": "ES70", "area": "Gran Canaria" }, "geometry": { "type": "MultiPolygon", "coordinates": [ [ [ [ -15.424183849604958, 28.122699648070295 ], [ -15.426686383170081, 28.112833435914297 ], [ -15.426865046984346, 28.112777241776257 ], [ -15.429487531224597, 28.118507983556583 ], [ -15.43407411143113, 28.124463928167756 ], [ -15.43501497586044, 28.12950093561966 ], [ -15.435112806810594, 28.130108124590265 ], [ -15.428695625103046, 28.136365322301742 ], [ -15.424183849604958, 28.122699648070295 ] ] ] ] } },
{ "type": "Feature", "properties": { "codatzbs": "70102", "n_zbs": "AGUIMES", "ccaa_cd": "ES70", "area": "Gran Canaria" }, "geometry": { "type": "MultiPolygon", "coordinates": [ [ [ [ -15.383654209973828, 27.870851062426595 ], [ -15.409160171204917, 27.848048055873051 ], [ -15.417977374556187, 27.857814033191062 ], [ -15.511901074375089, 27.882254786129465 ], [ -15.519897237167754, 27.931696207214145 ], [ -15.543037896881458, 27.949715394250006 ], [ -15.542640733782832, 27.952111396823511 ], [ -15.507494169720189, 27.936693913393356 ], [ -15.46974084156659, 27.933979765753577 ], [ -15.433471553069751, 27.888762024148093 ], [ -15.383654209973828, 27.870851062426595 ] ] ] ] } },
{ "type": "Feature", "properties": { "codatzbs": "70101", "n_zbs": "AGAETE", "ccaa_cd": "ES70", "area": "Gran Canaria" }, "geometry": { "type": "MultiPolygon", "coordinates": [ [ [ [ -15.705602457987029, 28.11325029236707 ], [ -15.662641190938189, 28.08647096666175 ], [ -15.674680059936804, 28.052810192336494 ], [ -15.72419939198835, 28.030638196895268 ], [ -15.746045087310961, 28.051064083040956 ], [ -15.720195579662288, 28.07056461536467 ], [ -15.705602457987029, 28.11325029236707 ] ] ] ] } },
{ "type": "Feature", "properties": { "codatzbs": "70107", "n_zbs": "CANALEJAS", "ccaa_cd": "ES70", "area": "Gran Canaria" }, "geometry": { "type": "MultiPolygon", "coordinates": [ [ [ [ -15.41475796890512, 28.10964453436776 ], [ -15.426686383170081, 28.112833435914297 ], [ -15.424183849604958, 28.122699648070295 ], [ -15.41475796890512, 28.10964453436776 ] ] ] ] } },
{ "type": "Feature", "properties": { "codatzbs": "70106", "n_zbs": "GALDAR-CAIDEROS", "ccaa_cd": "ES70", "area": "Gran Canaria" }, "geometry": { "type": "MultiPolygon", "coordinates": [ [ [ [ -15.618161425809149, 28.038522200738953 ], [ -15.615258730805806, 28.021316303904257 ], [ -15.674680059936804, 28.052810192336494 ], [ -15.662641190938189, 28.08647096666175 ], [ -15.705602457987029, 28.11325029236707 ], [ -15.705775770835146, 28.157219730905865 ], [ -15.690187644644084, 28.169329495260001 ], [ -15.649480272896255, 28.164974593902343 ], [ -15.631499102901271, 28.111942695199215 ], [ -15.636329926384974, 28.066476851325604 ], [ -15.618161425809149, 28.038522200738953 ] ] ] ] } },
{ "type": "Feature", "properties": { "codatzbs": "70105", "n_zbs": "BARRIO ATLANTICO", "ccaa_cd": "ES70", "area": "Gran Canaria" }, "geometry": { "type": "MultiPolygon", "coordinates": [ [ [ [ -15.439994745960746, 28.106663513810076 ], [ -15.429302748423083, 28.117800899691758 ], [ -15.426140491090791, 28.108094693115561 ], [ -15.439994745960746, 28.106663513810076 ] ] ], [ [ [ -15.440426874700506, 28.105813407163001 ], [ -15.441736429692469, 28.103502838385278 ], [ -15.440328016724608, 28.119171773158769 ], [ -15.440426874700506, 28.105813407163001 ] ] ] ] } },
{ "type": "Feature", "properties": { "codatzbs": "70104", "n_zbs": "ARUCAS", "ccaa_cd": "ES70", "area": "Gran Canaria" }, "geometry": { "type": "MultiPolygon", "coordinates": [ [ [ [ -15.484806485031244, 28.134876938919604 ], [ -15.492425919120876, 28.123818290481719 ], [ -15.504498218617924, 28.100377072843628 ], [ -15.549330884912422, 28.085472911645525 ], [ -15.541151010410829, 28.13010973887333 ], [ -15.562991844897738, 28.134994015361485 ], [ -15.587153724364896, 28.147274521402039 ], [ -15.528613514102403, 28.154190498592641 ], [ -15.484806485031244, 28.134876938919604 ] ] ], [ [ [ -15.588571902171566, 28.147223293320337 ], [ -15.591100257071218, 28.131019035300199 ], [ -15.60910282463567, 28.148063348244932 ], [ -15.588571902171566, 28.147223293320337 ] ] ] ] } }
]
}
